$$SOE
2461302.500000000, A.D. 2026-Sep-19 00:00:00.0000, -3.888305560038558E+08, -1.946865274789551E+08, -6.957514068579775E+07,
2461309.500000000, A.D. 2026-Sep-26 00:00:00.0000, -3.845204690524393E+08, -2.043063617839584E+08, -6.788133610189784E+07,
2461316.500000000, A.D. 2026-Oct-03 00:00:00.0000, -3.799922690987243E+08, -2.138103036745329E+08, -6.614902337554663E+07,
2461323.500000000, A.D. 2026-Oct-10 00:00:00.0000, -3.752489900817515E+08, -2.231932273768593E+08, -6.437926617710669E+07,
2461330.500000000, A.D. 2026-Oct-17 00:00:00.0000, -3.702937862568588E+08, -2.324501049610790E+08, -6.257314687324896E+07,
2461337.500000000, A.D. 2026-Oct-24 00:00:00.0000, -3.651299289026481E+08, -2.415760092842855E+08, -6.073176556887199E+07,
2461344.500000000, A.D. 2026-Oct-31 00:00:00.0000, -3.597608028724691E+08, -2.505661169533712E+08, -5.885623916750707E+07,
2461351.500000000, A.D. 2026-Nov-07 00:00:00.0000, -3.541899026578339E+08, -2.594157112325248E+08, -5.694770047651537E+07,
2461358.500000000, A.D. 2026-Nov-14 00:00:00.0000, -3.484208277691447E+08, -2.681201840070046E+08, -5.500729730412093E+07,
2461365.500000000, A.D. 2026-Nov-21 00:00:00.0000, -3.424572792511318E+08, -2.766750361205657E+08, -5.303619132739474E+07,
2461372.500000000, A.D. 2026-Nov-28 00:00:00.0000, -3.363030583366898E+08, -2.850758790950511E+08, -5.103555688668630E+07,
2461379.500000000, A.D. 2026-Dec-05 00:00:00.0000, -3.299620636266729E+08, -2.933184388900906E+08, -4.900658009362115E+07,
2461386.500000000, A.D. 2026-Dec-12 00:00:00.0000, -3.234382866381817E+08, -3.013985585926714E+08, -4.695045801469177E+07,
2461393.500000000, A.D. 2026-Dec-19 00:00:00.0000, -3.167358076145672E+08, -3.093122000299784E+08, -4.486839775748689E+07,
2461400.500000000, A.D. 2026-Dec-26 00:00:00.0000, -3.098587917444773E+08, -3.170554451739765E+08, -4.276161551812407E+07,
2461407.500000000, A.D. 2027-Jan-02 00:00:00.0000, -3.028114855192240E+08, -3.246244975304054E+08, -4.063133563178132E+07,
2461414.500000000, A.D. 2027-Jan-09 00:00:00.0000, -2.955982131176211E+08, -3.320156834946982E+08, -3.847878963661414E+07,
2461421.500000000, A.D. 2027-Jan-16 00:00:00.0000, -2.882233727898934E+08, -3.392254536688652E+08, -3.630521535474209E+07,
2461428.500000000, A.D. 2027-Jan-23 00:00:00.0000, -2.806914332018174E+08, -3.462503841817278E+08, -3.411185599878803E+07,
2461435.500000000, A.D. 2027-Jan-30 00:00:00.0000, -2.730069295584036E+08, -3.530871780631341E+08, -3.189995932604553E+07,
2461442.500000000, A.D. 2027-Feb-06 00:00:00.0000, -2.651744590893393E+08, -3.597326663350818E+08, -2.967077685235512E+07,
2461449.500000000, A.D. 2027-Feb-13 00:00:00.0000, -2.571986763631824E+08, -3.661838076026582E+08, -2.742556298459299E+07,
2461456.500000000, A.D. 2027-Feb-20 00:00:00.0000, -2.490842907999058E+08, -3.724376869377594E+08, -2.516557392030473E+07,
2461463.500000000, A.D. 2027-Feb-27 00:00:00.0000, -2.408360649907525E+08, -3.784915172716062E+08, -2.289206670588005E+07,
2461470.500000000, A.D. 2027-Mar-06 00:00:00.0000, -2.324588108121134E+08, -3.843426413761966E+08, -2.060629857362732E+07,
2461477.500000000, A.D. 2027-Mar-13 00:00:00.0000, -2.239573849372497E+08, -3.899885323870878E+08, -1.830952624395853E+07,
2461484.500000000, A.D. 2027-Mar-20 00:00:00.0000, -2.153366848771462E+08, -3.954267937042366E+08, -1.600300515789968E+07,
2461491.500000000, A.D. 2027-Mar-27 00:00:00.0000, -2.066016453499788E+08, -4.006551588236282E+08, -1.368798870421314E+07,
2461498.500000000, A.D. 2027-Apr-03 00:00:00.0000, -1.977572347786844E+08, -4.056714911528375E+08, -1.136572746467897E+07,
2461505.500000000, A.D. 2027-Apr-10 00:00:00.0000, -1.888084518590359E+08, -4.104737837934389E+08, -9.037468482110947E+06,
2461512.500000000, A.D. 2027-Apr-17 00:00:00.0000, -1.797603221804805E+08, -4.150601593099294E+08, -6.704454554745704E+06,
2461519.500000000, A.D. 2027-Apr-24 00:00:00.0000, -1.706178948245814E+08, -4.194288695515559E+08, -4.367923569437504E+06,
2461526.500000000, A.D. 2027-May-01 00:00:00.0000, -1.613862386446693E+08, -4.235782955026984E+08, -2.029107898779333E+06,
2461533.500000000, A.D. 2027-May-08 00:00:00.0000, -1.520704379218449E+08, -4.275069464165207E+08, 3.107661709466577E+05,
2461540.500000000, A.D. 2027-May-15 00:00:00.0000, -1.426755888961688E+08, -4.312134572810155E+08, 2.650479196304619E+06,
2461547.500000000, A.D. 2027-May-22 00:00:00.0000, -1.332067987379396E+08, -4.346965872112774E+08, 4.988819449338198E+06,
2461554.500000000, A.D. 2027-May-29 00:00:00.0000, -1.236691836038635E+08, -4.379552202397079E+08, 7.324583478448451E+06,
2461561.500000000, A.D. 2027-Jun-05 00:00:00.0000, -1.140678648946891E+08, -4.409883653766384E+08, 9.656576532405466E+06,
2461568.500000000, A.D. 2027-Jun-12 00:00:00.0000, -1.044079657231981E+08, -4.437951555128573E+08, 1.198361306711620E+07,
2461575.500000000, A.D. 2027-Jun-19 00:00:00.0000, -9.469460792425433E+07, -4.463748461017174E+08, 1.430451728928658E+07,
2461582.500000000, A.D. 2027-Jun-26 00:00:00.0000, -8.493290932761115E+07, -4.487268138849123E+08, 1.661812369014195E+07,
2461589.500000000, A.D. 2027-Jul-03 00:00:00.0000, -7.512798116105974E+07, -4.508505556568710E+08, 1.892327755789718E+07,
2461596.500000000, A.D. 2027-Jul-10 00:00:00.0000, -6.528492554669420E+07, -4.527456870630854E+08, 2.121883546652234E+07,
2461603.500000000, A.D. 2027-Jul-17 00:00:00.0000, -5.540883305393923E+07, -4.544119414759097E+08, 2.350366573471257E+07,
2461610.500000000, A.D. 2027-Jul-24 00:00:00.0000, -4.550478015344386E+07, -4.558491690153273E+08, 2.577664883618465E+07,
2461617.500000000, A.D. 2027-Jul-31 00:00:00.0000, -3.557782616118842E+07, -4.570573354833237E+08, 2.803667774349570E+07,
2461624.500000000, A.D. 2027-Aug-07 00:00:00.0000, -2.563300987426233E+07, -4.580365200635370E+08, 3.028265831853607E+07,
2461631.500000000, A.D. 2027-Aug-14 00:00:00.0000, -1.567534819978635E+07, -4.587869120417476E+08, 3.251350994044206E+07,
2461638.500000000, A.D. 2027-Aug-21 00:00:00.0000, -5.709836158099180E+06, -4.593088099131662E+08, 3.472816603942326E+07,
2461645.500000000, A.D. 2027-Aug-28 00:00:00.0000, 4.258555172014706E+06, -4.596026216764343E+08, 3.692557432038131E+07,
2461652.500000000, A.D. 2027-Sep-04 00:00:00.0000, 1.422488158552307E+07, -4.596688638158088E+08, 3.910469698953083E+07,
2461659.500000000, A.D. 2027-Sep-11 00:00:00.0000, 2.418422816587482E+07, -4.595081596358567E+08, 4.126451105824634E+07,
2461666.500000000, A.D. 2027-Sep-18 00:00:00.0000, 3.413171131604882E+07, -4.591212376012459E+08, 4.340400865896551E+07,
2461673.500000000, A.D. 2027-Sep-25 00:00:00.0000, 4.406248063555398E+07, -4.585089297613286E+08, 4.552219734592406E+07,
2461680.500000000, A.D. 2027-Oct-02 00:00:00.0000, 5.397172071946782E+07, -4.576721702337420E+08, 4.761810037613438E+07,
2461687.500000000, A.D. 2027-Oct-09 00:00:00.0000, 6.385465290343456E+07, -4.566119937533755E+08, 4.969075696825865E+07,
2461694.500000000, A.D. 2027-Oct-16 00:00:00.0000, 7.370653701944964E+07, -4.553295343439179E+08, 5.173922252939515E+07,
2461701.500000000, A.D. 2027-Oct-23 00:00:00.0000, 8.352267342361291E+07, -4.538260241204547E+08, 5.376256882604368E+07,
2461708.500000000, A.D. 2027-Oct-30 00:00:00.0000, 9.329840567113839E+07, -4.521027916154177E+08, 5.575988411543128E+07,
2461715.500000000, A.D. 2027-Nov-06 00:00:00.0000, 1.030291226750302E+08, -4.501612585012909E+08, 5.773027343653299E+07,
2461722.500000000, A.D. 2027-Nov-13 00:00:00.0000, 1.127102583628556E+08, -4.480029367858567E+08, 5.967285907303157E+07,
2461729.500000000, A.D. 2027-Nov-20 00:00:00.0000, 1.223372917348715E+08, -4.456294286646078E+08, 6.158678074289754E+07,
2461736.500000000, A.D. 2027-Nov-27 00:00:00.0000, 1.319057489439386E+08, -4.430424260662769E+08, 6.347119560838719E+07,
2461743.500000000, A.D. 2027-Dec-04 00:00:00.0000, 1.414112053767105E+08, -4.402437089795679E+08, 6.532527836717409E+07,
2461750.500000000, A.D. 2027-Dec-11 00:00:00.0000, 1.508492871881316E+08, -4.372351435277624E+08, 6.714822139714509E+07,
2461757.500000000, A.D. 2027-Dec-18 00:00:00.0000, 1.602156725660477E+08, -4.340186801332570E+08, 6.893923490297942E+07,
2461764.500000000, A.D. 2027-Dec-25 00:00:00.0000, 1.695060928788805E+08, -4.305963517766772E+08, 7.069754705137697E+07,
2461771.500000000, A.D. 2028-Jan-01 00:00:00.0000, 1.787163337483243E+08, -4.269702723374722E+08, 7.242240409300248E+07,
$$EOE